LEMUR-2-LAILA           
1 66776U 25276DQ  26160.19599794  .00004918  00000+0  22370-3 0  9990
2 66776  97.4174 234.2023 0001690 145.8587 214.2758 15.21183398 29232
LEMUR-2-CELIJO-SB-PK    
1 66781U 25276DW  26160.09788499  .00004807  00000+0  39212-3 0  9997
2 66781  97.5277 231.1402 0008854 151.8907 208.2797 14.99874439 21417
LEMUR-2-FINNIAN         
1 66782U 25276DX  26159.74353463  .00007148  00000+0  57464-3 0  9997
2 66782  97.5259 231.0053 0008577 114.2544 245.9577 15.00271962 18731
LEMUR-2-STARLIGHT       
1 66783U 25276DY  26159.15835773  .00005428  00000+0  45216-3 0  9993
2 66783  97.5274 230.1048 0015352 153.7795 206.4209 14.98948334 28845
LEMUR-2-TARTIFLETTE     
1 66784U 25276DZ  26159.75779183  .00007489  00000+0  62154-3 0  9991
2 66784  97.5278 230.6893 0013941 158.1116 202.0706 14.98982216 28932
LEMUR-2-VUKASIN         
1 66785U 25276EA  26160.02550536  .00005248  00000+0  42333-3 0  9991
2 66785  97.5309 231.2249 0006287 143.5710 216.5943 15.00276292 28929
LEMUR-2-HOTSPUR-TOM     
1 66786U 25276EB  26160.15025508  .00006265  00000+0  52223-3 0  9991
2 66786  97.5255 231.0522 0015359 152.0796 208.1254 14.98860681 28920
LEMUR-2-MYRA            
1 66787U 25276EC  26160.18964289  .00005725  00000+0  46214-3 0  9996
2 66787  97.5219 231.3342 0015610 168.0041 192.1558 15.00135130 29012
LEMUR-2 FIKRETDENGIZ    
1 67363U 26004A   26159.99920701  .00003500  00000+0  38447-3 0  9993
2 67363  97.8015 158.6834 0009419 156.8879 203.2764 14.88265150 22063
TWILIGHT-1 OBJECT B     
1 67364U 26004B   26160.22210466  .00001749  00000+0  19791-3 0  9996
2 67364  97.8059 158.9215 0009443 147.3595 212.8206 14.87675373 22108
LEMUR-2-MARIO-SOUSA     
1 67365U 26004C   26160.25274652  .00003468  00000+0  37929-3 0  9990
2 67365  97.7991 158.9296 0008996 156.7218 203.4408 14.88449518 22112
LEMUR-2-SONNENBLUME     
1 67367U 26004E   26160.25014221  .00002168  00000+0  24046-3 0  9998
2 67367  97.7984 158.9145 0008536 158.3621 201.7958 14.88275023 22114
LEMUR-2-WOBLER          
1 67368U 26004F   26160.24466731  .00002972  00000+0  32579-3 0  9998
2 67368  97.8039 159.0235 0008955 148.1642 212.0118 14.88462872 22117
LEMUR-2-GRAM-E-SUE      
1 67370U 26004H   26159.22672773  .00002464  00000+0  27137-3 0  9992
2 67370  97.7973 157.9220 0007491 161.8793 198.2692 14.88432151 21961
LEMUR-2-KATIE           
1 67387U 26004AA  26160.23076940  .00003710  00000+0  39038-3 0  9995
2 67387  97.8037 159.3436 0004738 109.1895 250.9836 14.89999040 22126
LEMUR-2-HCS-BAZUS       
1 67388U 26004AB  26159.75979162  .00005493  00000+0  57517-3 0  9991
2 67388  97.8026 158.8607 0004354 105.5742 254.5957 14.89994072 22050
